K23RH8R 17.58  0.15 K2555  38.02727   99.51182  332.02736   16.24972  0.1552663  0.17587579   3.1549950  2 MPO886333    30   3 2020-2024 0.72 M-v 3Ek MPCLINUX   0000          2023 RR178         20241226
K23S73M 19.36  0.15 K2555 130.68647   57.64951  344.69179   11.09804  0.3051774  0.22940029   2.6428555  2 MPO792832    22   3 2014-2023 0.39 M-v 3Ek Veres      0000          2023 SM73          20231115
K23T34C 19.23  0.15 K2555 127.64764  136.74139  230.22901    6.89832  0.2355185  0.21269206   2.7795119  2 E2024-UD6    29   3 2009-2023 0.66 M-v 3Ek MPCLINUX   0000          2023 TC34          20231017
K24S52Y 18.03  0.15 K2555  15.63798   48.55517  350.89636   11.01996  0.1446066  0.17893496   3.1189321  2 MPO872944    24   3 2013-2024 0.89 M-v 3Ek MPCLINUX   0000          2024 SY52          20241001
K24U39Q 17.97  0.15 K2555 358.83688   31.09077   57.85746   11.20488  0.1281230  0.18335275   3.0686293  2 E2025-E98    30   3 2016-2024 0.53 M-v 3Ek MPCLINUX   0000          2024 UQ39          20241204
K23T84D 19.34  0.15 K2555 163.09878  220.74972  118.26513    0.88008  0.1688664  0.23398032   2.6082537  3 E2023-XD2    26   3 2006-2023 0.33 M-v 3Ek Veres      0000          2023 TD84          20231019
K24B15P 19.54  0.15 K2555  92.45576  346.43705  169.31477    5.43897  0.2109020  0.23676605   2.5877546  3 E2024-VI9    16   3 2016-2024 0.88 M-v 3Ek MPCLINUX   0000          2024 BP15          20240215
K24U25M 18.33  0.15 K2555  42.83170  218.68966  175.15216    5.57437  0.2200108  0.18659669   3.0329605  3 E2025-B14    34   3 2016-2024 0.87 M-v 3Ek MPCLINUX   0000          2024 UM25          20241204
K23S16D 18.79  0.15 K2555 112.03885  163.26383  227.94197    9.70958  0.3092018  0.19205008   2.9752701  2 E2023-W66    52   2 2018-2023 0.40 M-v 3Ek MPCLINUX   0000          2023 SD16          20231119
K24S48M 19.23  0.15 K2555  68.82013  300.55304   41.83709    6.09041  0.2680232  0.23183238   2.6243393  2 MPO894322    38   2 2007-2024 0.52 M-v 3Ek MPCLINUX   0000          2024 SM48          20241204
K23T28C 20.41  0.15 K2555 148.42290  143.91011  217.67907    4.53537  0.2629254  0.24262940   2.5458946  3 E2024-V16    17   2 2019-2023 1.03 M-v 3Ek MPCLINUX   0000          2023 TC28          20231016
K23L01W 18.78  0.15 K2555 137.72177  262.90535   82.04703   49.18939  0.2653489  0.29338743   2.2430642  4 MPO894262    19   2 2023-2025 0.88 M-v 3Ek Veres      0005          2023 LW1           20250106
K23TB5C 18.01  0.15 K2555 123.75877  307.26154   77.57983   10.32624  0.1276650  0.20010055   2.8949242  4 E2024-UH9    41   2 2016-2023 0.84 M-v 3Ek MPCLINUX   0000          2023 TC115         20231116
K24RE9P 17.68  0.15 K2555  36.74977  240.57801  154.38193   17.03598  0.2423313  0.17961014   3.1111109  3 MPO894312    42   1  112 days 0.93 M-v 3Ek MPCLINUX   0000          2024 RP149         20250102
K23M13Y 17.67  0.15 K2555 160.00134   13.64231  283.11550   25.24803  0.1352383  0.21785275   2.7354410  4 E2024-U45    20   1   60 days 0.97 M-v 3Ek Pan        2000          2023 MY13          20230823
K23S32G 19.37  0.15 K2555 289.43315   64.82004  229.75312   19.95129  0.0639542  0.36979448   1.9223351  4 E2023-XF2    30   1   76 days 0.60 M-v 3Ek MPCLINUX   2006          2023 SG32          20231207
K23S32Z 18.76  0.15 K2555 159.49630  328.04035   32.14740   15.36099  0.1577588  0.26208006   2.4183179  4 E2023-XF2    22   1   77 days 0.40 M-v 3Ek MPCLINUX   2007          2023 SZ32          20231206
K24S18G 18.50  0.15 K2555  62.59646  263.98179   73.05661    9.76541  0.2988947  0.18933252   3.0036725  4 MPO894318    31   1   57 days 0.92 M-v 3Ek MPCLINUX   0000          2024 SG18          20241121
K24T70E 19.19  0.15 K2555  59.66860  347.02779   39.19383   15.07760  0.2559422  0.23463613   2.6033913  4 MPO886503    31   1   57 days 0.83 M-v 3Ek MPCLINUX   0000          2024 TE70          20241207
K24T74S 18.46  0.15 K2555  39.53028  279.93244  132.41826   25.96391  0.3444729  0.21510919   2.7586509  4 E2025-B08    33   1  101 days 0.96 M-v 3Ek MPCLINUX   0000          2024 TS74          20250118
K24T76V 20.22  0.15 K2555 119.75090  309.01666   33.91867   21.69788  0.1366852  0.38999524   1.8553671  4 MPO886524    15   1   57 days 0.73 M-v 3Ek MPCLINUX   0006          2024 TV76          20241129
K24U56K 19.85  0.15 K2555  51.08291  121.77314  273.46992    5.93683  0.1653493  0.26008931   2.4306423  4 MPO886628    15   1   55 days 1.05 M-v 3Ek MPCLINUX   0000          2024 UK56          20241222
K24U58Y 19.01  0.15 K2555  47.59073  232.53870  183.52737   11.97576  0.2963668  0.24317032   2.5421178  4 E2025-BE4    17   1   87 days 1.10 M-v 3Ek MPCLINUX   0000          2024 UY58          20250126
K24W32K 19.74  0.15 K2555  21.46170  212.97347  253.54034   20.48877  0.0679037  0.37548207   1.9028735  4 E2025-B29    26   1   59 days 0.91 M-v 3Ek MPCLINUX   0006          2024 WK32          20250119
K24W85Y 18.74  0.15 K2555  16.53542  278.50019  185.77864    6.90651  0.1544774  0.24527008   2.5275883  4 MPO886970    20   1   40 days 0.73 M-v 3Ek MPCLINUX   0000          2024 WY85          20250102
K24X21W 18.88  0.15 K2555  89.80442  259.45059   83.72057   16.73083  0.3644715  0.23931018   2.5693816  4 MPO887085    23   1  164 days 0.94 M-v 3Ek MPCLINUX   0005          2024 XW21          20241228
K23M05H 19.23  0.15 K2555 195.32548   30.08362  269.86726    9.63082  0.3300276  0.28212723   2.3023573  5 MPO782816    70   1  116 days 0.36 M-v 3Ek MPCLINUX   2005          2023 MH5           20231018
K23N08E 18.07  0.15 K2555 106.03310   77.83492  273.87102   19.10710  0.1914918  0.21079200   2.7961897  5 E2024-U45    14   1   28 days 0.54 M-v 3Ek Pan        2000          2023 NE8           20230805
K23S14H 20.59  0.15 K2555 190.47384  206.78466  215.53771   22.12192  0.0724078  0.41054449   1.7929268  5 MPO775159    23   1   42 days 0.63 M-v 3Ek MPCLINUX   2005          2023 SH14          20231105
K23S19E 18.86  0.15 K2555 111.99770  163.33918  230.79074   12.48132  0.1691963  0.22462153   2.6802078  5 MPO775179    18   1   40 days 0.44 M-v 3Ek MPCLINUX   2000          2023 SE19          20231105
K23S39H 19.43  0.15 K2555 149.28130  177.57254  213.71582    4.58273  0.1715714  0.28743823   2.2739087  5 E2023-XF2    15   1   79 days 0.39 M-v 3Ek MPCLINUX   2000          2023 SH39          20231206
K23S73U 19.06  0.15 K2555 116.79008  132.83501  268.76482    4.21056  0.1992257  0.23126790   2.6286079  5 MPO792833    14   1   60 days 0.80 M-v 3Ek Veres      2000          2023 SU73          20231115
K23S82W 18.29  0.15 K2555  94.08069  102.29788  279.41778    7.61442  0.1810394  0.17384673   3.1794966  5 MPO811345    10   1   21 days 0.53 M-v 3Ek Veres      2000          2023 SW82          20231017
K23T13V 18.41  0.15 K2555 135.28650  347.57266  352.97019    6.71486  0.2380620  0.18972258   2.9995541  5 E2023-X62    40   1   59 days 0.72 M-v 3Ek MPCLINUX   2000          2023 TV13          20231204
K23V03N 25.03  0.15 K2555  70.47935  322.80005   33.77154    4.66275  0.2142146  0.73449168   1.2165916  5 E2024-UH9    34   1   35 days 1.09 M-v 3Ek MPCLINUX   2803          2023 VN3           20231209
K23V32D 18.17  0.15 K2555 150.67870  286.86767   80.29547   18.12931  0.1787067  0.21127253   2.7919482  5 MPO793257    15   1   56 days 0.63 M-v 3Ek MPCLINUX   2000          2023 VD32          20231231
K23V34A 18.20  0.15 K2555  87.51521  258.03580  181.39347   11.99127  0.1400691  0.18864068   3.0110120  5 MPO793262    14   1   55 days 0.61 M-v 3Ek MPCLINUX   2000          2023 VA34          20240101
K23V46A 19.71  0.15 K2555 143.18612   74.82337  318.80980   11.40149  0.2424124  0.24406783   2.5358819  5 MPO811401    12   1   26 days 0.74 M-v 3Ek Veres      2000          2023 VA46          20231211
K23W18T 18.72  0.15 K2555 151.14012  114.99540  266.16541   11.66516  0.3019251  0.23624073   2.5915894  5 MPO793347    34   1   50 days 0.60 M-v 3Ek MPCLINUX   2000          2023 WT18          20240110
K23W27C 19.05  0.15 K2555 144.17361  107.73024  287.23538    4.48743  0.2725274  0.23376345   2.6098666  5 MPO793372    22   1   39 days 0.74 M-v 3Ek MPCLINUX   2000          2023 WC27          20240101
K24J52D 21.06  0.15 K2555  80.14581  174.61230  100.49443   11.09037  0.3899509  0.27626677   2.3348032  5 MPO840698    22   1   59 days 0.60 M-v 3Ek MPCLINUX   2005          2024 JD52          20240702
K24L06U 17.56  0.15 K2555  46.62996  144.64077  126.15434   15.51882  0.1978893  0.17545348   3.1600556  5 MPO840768    15   1   26 days 0.96 M-v 3Ek MPCLINUX   2000          2024 LU6           20240627
K24S03N 26.91  0.15 K2555  60.72174  191.44224  358.19371   18.58889  0.1095216  1.12619072   0.9149445  5 MPO872782    14   1    5 days 0.72 M-v 3Ek Veres      0802          2024 SN3           20240927
K24S75J 19.38  0.15 K2555  15.33248   46.31042   33.66201   23.77842  0.1994447  0.27427339   2.3461023  5 MPO886464    18   1   59 days 0.94 M-v 3Ek MPCLINUX   0007          2024 SJ75          20241123
K24S75X 19.03  0.15 K2555  59.86143  350.52087   26.54563   34.74122  0.2004806  0.23567461   2.5957380  5 MPO886466    19   1   68 days 0.94 M-v 3Ek MPCLINUX   0000          2024 SX75          20241203
K24T51F 20.13  0.15 K2555 117.47483  342.74949  339.87899    4.77368  0.1618430  0.32193247   2.1084317  5 MPO873163    11   1   22 days 0.82 M-v 3Ek MPCLINUX   0000          2024 TF51          20241102
K24T56U 21.00  0.15 K2555  36.29434  133.48555  262.13540    7.24058  0.3325195  0.21884654   2.7271536  5 MPO873181    11   1   30 days 0.84 M-v 3Ek MPCLINUX   0000          2024 TU56          20241102
K24T59N 20.14  0.15 K2555  47.18294   64.79841  343.48751    5.28591  0.1757071  0.30016899   2.2091515  5 MPO894336    21   1   50 days 0.84 M-v 3Ek MPCLINUX   0000          2024 TN59          20241122
K24U20E 19.93  0.15 K2555  69.99573  299.45725   73.34559    3.24947  0.2116448  0.27332654   2.3515173  5 MPO894340    22   1   42 days 1.03 M-v 3Ek MPCLINUX   0000          2024 UE20          20241204
